STARLINK-30755          
1 58186U 23167M   26068.26855532  .00002142  00000+0  87320-4 0  9997
2 58186  43.0067 145.5335 0004172 301.2030  58.8413 15.27603027130926
OTTER                   
1 62623U 25009Q   26068.72300813  .00012198  00000+0  45151-3 0  9990
2 62623  97.4065 151.3812 0003573 310.7710  49.3219 15.27809545 63722
